NORAD_CAT_ID,OBJECT_NAME,OBJECT_TYPE,EPOCH,MEAN_MOTION,ECCENTRICITY,INCLINATION,RA_OF_ASC_NODE,ARG_OF_PERICENTER,MEAN_ANOMALY,BSTAR,MEAN_MOTION_DOT,MEAN_MOTION_DDOT,TLE_LINE0,TLE_LINE1,TLE_LINE2,SEMIMAJOR_AXIS,PERIOD,APOGEE,PERIGEE,DECAYED
52543.0,STARLINK-3926,PAYLOAD,2022-08-11 06:00:02,15.08855647,0.000215,53.2161,233.9656,44.4308,16.9915,-0.0016902999999999,-0.00027101,0.0,0 STARLINK-3926,1 52543U 22051L   22223.25002315 -.00027101  00000-0 -16903-2 0  9992,2 52543  53.2161 233.9656 0002150  44.4308  16.9915 15.08855647 14289,6917.833000000001,95.437,541.185,538.21,0.0
52543.0,STARLINK-3926,PAYLOAD,2022-08-11 14:00:01,15.08848931,0.0002213,53.2161,232.4694,41.3879,31.5698,-8.680600000000001e-05,-1.67e-05,0.0,0 STARLINK-3926,1 52543U 22051L   22223.58334491 -.00001670  00000-0 -86806-4 0  9995,2 52543  53.2161 232.4694 0002213  41.3879  31.5698 15.08848931  1302,6917.853,95.437,541.249,538.187,0.0
52543.0,STARLINK-3926,PAYLOAD,2022-08-11 22:00:00,15.08836577,0.0002020999999999,53.2164,230.9713,46.0083,38.5602,0.00084896,0.00013248,0.0,0 STARLINK-3926,1 52543U 22051L   22223.91667824  .00013248  00000-0  84896-3 0  9999,2 52543  53.2164 230.9713 0002021  46.0083  38.5602 15.08836577 14383,6917.891,95.438,541.154,538.3580000000002,0.0
52543.0,STARLINK-3926,PAYLOAD,2022-08-12 14:00:01,15.08837071,0.0002189999999999,53.2165,227.9799,40.8728,66.8787,-0.00045143,-7.465e-05,0.0,0 STARLINK-3926,1 52543U 22051L   22224.58334491 -.00007465  00000-0 -45143-3 0  9992,2 52543  53.2165 227.9799 0002190  40.8728  66.8787 15.08837071 14488,6917.889,95.438,541.269,538.239,0.0
52543.0,STARLINK-3926,PAYLOAD,2022-08-12 22:00:01,15.08813111,0.0002005,53.2169,226.4819,46.2844,73.12100000000002,0.0025921,0.00041177,0.0,0 STARLINK-3926,1 52543U 22051L   22224.91668981  .00041177  00000-0  25921-2 0  9990,2 52543  53.2169 226.4819 0002005  46.2844  73.1210 15.08813111  1301,6917.9630000000025,95.439,541.215,538.441,0.0
52543.0,STARLINK-3926,PAYLOAD,2022-08-13 14:00:01,15.088471900000002,0.0002203,53.2168,223.4906,42.6404,99.8676,-0.0010652,-0.00017205,0.0,0 STARLINK-3926,1 52543U 22051L   22225.58334491 -.00017205  00000-0 -10652-2 0  9992,2 52543  53.2168 223.4906 0002203  42.6404  99.8676 15.08847190  1301,6917.858,95.437,541.247,538.1990000000002,0.0
52543.0,STARLINK-3926,PAYLOAD,2022-08-13 22:00:00,15.08823134,0.0002028,53.2171,221.9928,48.2287,105.8797,0.0022370999999999,0.00035479,0.0,0 STARLINK-3926,1 52543U 22051L   22225.91667824  .00035479  00000-0  22371-2 0  9990,2 52543  53.2171 221.9928 0002028  48.2287 105.8797 15.08823134  1302,6917.932,95.439,541.2,538.394,0.0
52543.0,STARLINK-3926,PAYLOAD,2022-08-14 14:00:01,15.08859084,0.0002195999999999,53.2169,219.0014,44.7545,132.5439,-0.0014148,-0.00022747,0.0,0 STARLINK-3926,1 52543U 22051L   22226.58334491 -.00022747  00000-0 -14148-2 0  9994,2 52543  53.2169 219.0014 0002196  44.7545 132.5439 15.08859084 14797,6917.821999999999,95.436,541.206,538.168,0.0
52543.0,STARLINK-3926,PAYLOAD,2022-08-14 22:00:00,15.08847501,0.0002015,53.2171,217.5038,49.9067,139.0016,-0.00079051,-0.0001284999999999,0.0,0 STARLINK-3926,1 52543U 22051L   22226.91667824 -.00012850  00000-0 -79051-3 0  9999,2 52543  53.2171 217.5038 0002015  49.9067 139.0016 15.08847501  1302,6917.857,95.437,541.116,538.3290000000002,0.0
52543.0,STARLINK-3926,PAYLOAD,2022-08-15 14:00:01,15.08842106,0.0002139,53.2168,214.5123,45.0338,167.0464,-0.0018253,-0.00029223,0.0,0 STARLINK-3926,1 52543U 22051L   22227.58334491 -.00029223  00000-0 -18253-2 0  9992,2 52543  53.2168 214.5123 0002139  45.0338 167.0464 15.08842106  1309,6917.874,95.437,541.219,538.259,0.0
52543.0,STARLINK-3926,PAYLOAD,2022-08-15 16:00:00,15.08839392,0.0002091,53.217,214.1378,46.4543,258.5233,-0.0017703,-0.00028352,0.0,0 STARLINK-3926,1 52543U 22051L   22227.66667824 -.00028352  00000-0 -17703-2 0  9991,2 52543  53.2170 214.1378 0002091  46.4543 258.5233 15.08839392 14958,6917.882,95.438,541.194,538.3009999999998,0.0
52543.0,STARLINK-3926,PAYLOAD,2022-08-15 22:00:00,15.08818714,0.0002034,53.2169,213.0149,50.685,172.9819,0.0018559,0.00029355,0.0,0 STARLINK-3926,1 52543U 22051L   22227.91667824  .00029355  00000-0  18559-2 0  9991,2 52543  53.2169 213.0149 0002034  50.6850 172.9819 15.08818714  1304,6917.945,95.439,541.2180000000002,538.403,0.0
52543.0,STARLINK-3926,PAYLOAD,2022-08-16 06:00:02,15.08831853,0.0002233,53.2169,211.5203,46.996,188.3192,-0.00022337,-3.841e-05,0.0,0 STARLINK-3926,1 52543U 22051L   22228.25002315 -.00003841  00000-0 -22337-3 0  9991,2 52543  53.2169 211.5203 0002233  46.9960 188.3192 15.08831853 15049,6917.905,95.438,541.315,538.226,0.0
52543.0,STARLINK-3926,PAYLOAD,2022-08-16 14:00:01,15.088533900000002,0.0002198,53.2168,210.0235,46.5793,200.2522,-0.0020529,-0.00032825,0.0,0 STARLINK-3926,1 52543U 22051L   22228.58334491 -.00032825  00000-0 -20529-2 0  9994,2 52543  53.2168 210.0235 0002198  46.5793 200.2522 15.08853390  1302,6917.839,95.437,541.225,538.184,0.0
52543.0,STARLINK-3926,PAYLOAD,2022-08-16 22:00:00,15.08831455,0.0002131999999999,53.2169,208.526,52.1922,206.2381,0.0018577,0.00029394,0.0,0 STARLINK-3926,1 52543U 22051L   22228.91667824  .00029394  00000-0  18577-2 0  9995,2 52543  53.2169 208.5260 0002132  52.1922 206.2381 15.08831455  1305,6917.906999999997,95.438,541.246,538.297,0.0
52543.0,STARLINK-3926,PAYLOAD,2022-08-17 06:00:02,15.08841921,0.0002328,53.2169,207.0314,48.022,222.0716,0.00012267,1.665e-05,0.0,0 STARLINK-3926,1 52543U 22051L   22229.25002315  .00001665  00000-0  12267-3 0  9993,2 52543  53.2169 207.0314 0002328  48.0220 222.0716 15.08841921 15190,6917.875,95.437,541.35,538.129,0.0
52543.0,STARLINK-3926,PAYLOAD,2022-08-17 16:00:00,15.08843449,0.0002186999999999,53.217,205.1598,48.3893,326.1411,-0.0023743,-0.00037882,0.0,0 STARLINK-3926,1 52543U 22051L   22229.66667824 -.00037882  00000-0 -23743-2 0  9992,2 52543  53.2170 205.1598 0002187  48.3893 326.1411 15.08843449  1300,6917.87,95.437,541.248,538.222,0.0
52543.0,STARLINK-3926,PAYLOAD,2022-08-18 08:00:01,15.0881802,0.000236,53.2172,202.1688,46.8937,350.8171,0.0029539,0.0004701,0.0,0 STARLINK-3926,1 52543U 22051L   22230.33334491  .00047010  00000-0  29539-2 0  9990,2 52543  53.2172 202.1688 0002360  46.8937 350.8171 15.08818020 15358,6917.948,95.439,541.445,538.18,0.0
52543.0,STARLINK-3926,PAYLOAD,2022-08-18 14:00:01,15.08862196,0.0002286,53.2171,201.0454,47.7308,268.6646,-0.0017698,-0.00028362,0.0,0 STARLINK-3926,1 52543U 22051L   22230.58334491 -.00028362  00000-0 -17698-2 0  9991,2 52543  53.2171 201.0454 0002286  47.7308 268.6646 15.08862196  1301,6917.813,95.436,541.259,538.096,0.0
52543.0,STARLINK-3926,PAYLOAD,2022-08-18 22:00:00,15.08852606,0.0002209,53.2174,199.5482,52.8326,275.1705,0.0013344,0.0002102,0.0,0 STARLINK-3926,1 52543U 22051L   22230.91667824  .00021020  00000-0  13344-2 0  9993,2 52543  53.2174 199.5482 0002209  52.8326 275.1705 15.08852606  1302,6917.842,95.437,541.235,538.179,0.0
52543.0,STARLINK-3926,PAYLOAD,2022-08-19 14:00:01,15.088453,0.0002194,53.2173,196.5563,46.2417,304.9723,-0.0035996,-0.00057132,0.0,0 STARLINK-3926,1 52543U 22051L   22231.58334491 -.00057132  00000-0 -35996-2 0  9990,2 52543  53.2173 196.5563 0002194  46.2417 304.9723 15.08845300  1303,6917.864000000001,95.437,541.247,538.211,0.0
52543.0,STARLINK-3926,PAYLOAD,2022-08-19 16:00:00,15.08811791,0.0002106,53.2175,196.1818,47.5674,36.5493,-0.0001851999999999,-3.232e-05,0.0,0 STARLINK-3926,1 52543U 22051L   22231.66667824 -.00003232  00000-0 -18520-3 0  9995,2 52543  53.2175 196.1818 0002106  47.5674  36.5493 15.08811791 15557,6917.967,95.439,541.289,538.375,0.0
52543.0,STARLINK-3926,PAYLOAD,2022-08-19 22:00:00,15.08813116,0.0002104,53.2177,195.0594,50.4163,312.3675,0.0012637,0.00019866,0.0,0 STARLINK-3926,1 52543U 22051L   22231.91667824  .00019866  00000-0  12637-2 0  9993,2 52543  53.2177 195.0594 0002104  50.4163 312.3675 15.08813116  1300,6917.9630000000025,95.439,541.283,538.372,0.0
52543.0,STARLINK-3926,PAYLOAD,2022-08-20 14:00:01,15.08842246,0.0002198,53.2174,192.0674,47.989,337.9385,-0.0014579,-0.00023418,0.0,0 STARLINK-3926,1 52543U 22051L   22232.58334491 -.00023418  00000-0 -14579-2 0  9995,2 52543  53.2174 192.0674 0002198  47.9890 337.9385 15.08842246  1301,6917.874,95.437,541.259,538.2180000000002,0.0
52543.0,STARLINK-3926,PAYLOAD,2022-08-20 16:00:00,15.08822555,0.0002117,53.2175,191.693,49.4043,69.4262,0.0011709,0.00018387,0.0,0 STARLINK-3926,1 52543U 22051L   22232.66667824  .00018387  00000-0  11709-2 0  9992,2 52543  53.2175 191.6930 0002117  49.4043  69.4262 15.08822555 15701,6917.934,95.439,541.263,538.3340000000002,0.0
52543.0,STARLINK-3926,PAYLOAD,2022-08-20 22:00:00,15.08836494,0.0002136,53.2176,190.5707,52.2961,345.2116,0.00076352,0.00011883,0.0,0 STARLINK-3926,1 52543U 22051L   22232.91667824  .00011883  00000-0  76352-3 0  9990,2 52543  53.2176 190.5707 0002136  52.2961 345.2116 15.08836494  1305,6917.891,95.438,541.234,538.278,0.0
52543.0,STARLINK-3926,PAYLOAD,2022-08-21 14:00:01,15.08852261,0.0002137,53.2173,187.5784,49.1946,11.4993,-0.0038249,-0.00060671,0.0,0 STARLINK-3926,1 52543U 22051L   22233.58334491 -.00060671  00000-0 -38249-2 0  9998,2 52543  53.2173 187.5784 0002137  49.1946  11.4993 15.08852261  1307,6917.843000000003,95.437,541.186,538.23,0.0
52543.0,STARLINK-3926,PAYLOAD,2022-08-21 22:00:00,15.08824875,0.0002059,53.2174,186.0819,52.2306,20.0409,0.00013583,1.873e-05,0.0,0 STARLINK-3926,1 52543U 22051L   22233.91667824  .00001873  00000-0  13583-3 0  9996,2 52543  53.2174 186.0819 0002059  52.2306  20.0409 15.08824875  1307,6917.927,95.439,541.216,538.367,0.0
52543.0,STARLINK-3926,PAYLOAD,2022-08-22 06:00:00,15.08807766,0.0002234,53.2172,184.5873,47.9482,35.9052,0.0018054,0.00028537,0.0,0 STARLINK-3926,1 52543U 22051L   22234.25001157  .00028537  00000-0  18054-2 0  9998,2 52543  53.2172 184.5873 0002234  47.9482  35.9052 15.08807766 15943,6917.979,95.44,541.389,538.298,0.0
